NORAD_CAT_ID,OBJECT_NAME,OBJECT_TYPE,EPOCH,MEAN_MOTION,ECCENTRICITY,INCLINATION,RA_OF_ASC_NODE,ARG_OF_PERICENTER,MEAN_ANOMALY,BSTAR,MEAN_MOTION_DOT,MEAN_MOTION_DDOT,TLE_LINE0,TLE_LINE1,TLE_LINE2,SEMIMAJOR_AXIS,PERIOD,APOGEE,PERIGEE,DECAYED
53389.0,STARLINK-4523,PAYLOAD,2023-12-01 22:05:13,15.08865131,0.0001473,53.2162,244.6113,100.5596,259.5562,0.0010265,0.00016098,0.0,0 STARLINK-4523,1 53389U 22097B   23335.92029024  .00016098  00000-0  10265-2 0  9992,2 53389  53.2162 244.6113 0001473 100.5596 259.5562 15.08865131 73553,6917.804,95.436,540.688,538.65,0.0
53389.0,STARLINK-4523,PAYLOAD,2023-12-01 23:40:36,15.08871043,0.0001503,53.2162,244.3145,102.6643,257.4517,0.0011755,0.00018485,0.0,0 STARLINK-4523,1 53389U 22097B   23335.98652835  .00018485  00000-0  11755-2 0  9997,2 53389  53.2162 244.3145 0001503 102.6643 257.4517 15.08871043 72910,6917.786,95.436,540.69,538.611,0.0
53389.0,STARLINK-4523,PAYLOAD,2023-12-02 21:56:00,15.08839336,0.000168,53.2156,240.1539,130.5242,229.5896,0.00011982,1.619e-05,0.0,0 STARLINK-4523,1 53389U 22097B   23336.91389331  .00001619  00000-0  11982-3 0  9993,2 53389  53.2156 240.1539 0001680 130.5242 229.5896 15.08839336 73702,6917.882,95.438,540.91,538.585,0.0
53389.0,STARLINK-4523,PAYLOAD,2023-12-03 02:42:10,15.0882147,0.0001528,53.2142,239.2601,127.1097,233.0035,-0.00021064,-3.637e-05,0.0,0 STARLINK-4523,1 53389U 22097B   23337.11261778 -.00003637  00000-0 -21064-3 0  9996,2 53389  53.2142 239.2601 0001528 127.1097 233.0035 15.08821470 73083,6917.937,95.439,540.859,538.745,0.0
53389.0,STARLINK-4523,PAYLOAD,2023-12-03 09:03:42,15.08830402,0.0001303,53.215,238.0709,116.5905,243.5221,-9.0582e-05,-1.729e-05,0.0,0 STARLINK-4523,1 53389U 22097B   23337.37757878 -.00001729  00000-0 -90582-4 0  9997,2 53389  53.2150 238.0709 0001303 116.5905 243.5221 15.08830402 73122,6917.91,95.438,540.676,538.873,0.0
53389.0,STARLINK-4523,PAYLOAD,2023-12-04 00:57:34,15.08836859,0.0001444,53.2159,235.0955,104.1494,255.9658,0.00028439,4.241e-05,0.0,0 STARLINK-4523,1 53389U 22097B   23338.03998368  .00004241  00000-0  28439-3 0  9993,2 53389  53.2159 235.0955 0001444 104.1494 255.9658 15.08836859 73227,6917.89,95.438,540.754,538.756,0.0
53389.0,STARLINK-4523,PAYLOAD,2023-12-05 02:23:44,15.08858211,0.0001419,53.2158,230.3367,102.9895,257.1255,0.00061981,9.595e-05,0.0,0 STARLINK-4523,1 53389U 22097B   23339.09981891  .00009595  00000-0  61981-3 0  9999,2 53389  53.2158 230.3367 0001419 102.9895 257.1255 15.08858211 73384,6917.825,95.436,540.671,538.708,0.0
53389.0,STARLINK-4523,PAYLOAD,2023-12-06 22:54:32,15.08848238,0.0001566,53.2161,222.0067,134.3596,225.7525,0.00037715,5.721e-05,0.0,0 STARLINK-4523,1 53389U 22097B   23340.95453718  .00005721  00000-0  37715-3 0  9993,2 53389  53.2161 222.0067 0001566 134.3596 225.7525 15.08848238 73663,6917.855,95.437,540.804,538.637,0.0
53389.0,STARLINK-4523,PAYLOAD,2023-12-07 16:23:47,15.08839304,0.0001664,53.2163,218.7469,82.1339,277.9842,9.2092e-05,1.178e-05,0.0,0 STARLINK-4523,1 53389U 22097B   23341.68318361  .00001178  00000-0  92092-4 0  9990,2 53389  53.2163 218.7469 0001664  82.1339 277.9842 15.08839304 73774,6917.883,95.438,540.899,538.596,0.0
53389.0,STARLINK-4523,PAYLOAD,2023-12-08 01:56:05,15.08836428,0.0001414,53.217,216.9537,98.7109,261.4044,5.6464e-05,6.11e-06,0.0,0 STARLINK-4523,1 53389U 22097B   23342.08062340  .00000611  00000-0  56464-4 0  9992,2 53389  53.2170 216.9537 0001414  98.7109 261.4044 15.08836428 74484,6917.891,95.438,540.734,538.778,0.0
53389.0,STARLINK-4523,PAYLOAD,2023-12-10 00:02:16,15.08843278,0.0001347,53.2176,208.3291,99.975,260.1394,9.0675e-05,1.156e-05,0.0,0 STARLINK-4523,1 53389U 22097B   23344.00158064  .00001156  00000-0  90675-4 0  9992,2 53389  53.2176 208.3291 0001347  99.9750 260.1394 15.08843278 74128,6917.87,95.437,540.667,538.804,0.0
53389.0,STARLINK-4523,PAYLOAD,2023-12-10 22:17:40,15.08840363,0.0001402,53.2163,204.171,87.1704,272.9449,3.1681e-05,2.16e-06,0.0,0 STARLINK-4523,1 53389U 22097B   23344.92894338  .00000216  00000-0  31681-4 0  9992,2 53389  53.2163 204.1710 0001402  87.1704 272.9449 15.08840363 74915,6917.879,95.438,540.714,538.774,0.0
53389.0,STARLINK-4523,PAYLOAD,2023-12-11 22:08:27,15.08842391,0.0001476,53.216,199.7109,84.3646,275.7515,0.00011033,1.468e-05,0.0,0 STARLINK-4523,1 53389U 22097B   23345.92254307  .00001468  00000-0  11033-3 0  9997,2 53389  53.2160 199.7109 0001476  84.3646 275.7515 15.08842391 75063,6917.873,95.437,540.759,538.717,0.0
53389.0,STARLINK-4523,PAYLOAD,2023-12-12 20:23:51,15.08841978,0.0001485,53.216,195.5483,84.6006,275.5155,8.1238e-05,1.005e-05,0.0,0 STARLINK-4523,1 53389U 22097B   23346.84990445  .00001005  00000-0  81238-4 0  9991,2 53389  53.2160 195.5483 0001485  84.6006 275.5155 15.08841978 74556,6917.874,95.437,540.767,538.712,0.0
53389.0,STARLINK-4523,PAYLOAD,2023-12-13 20:14:38,15.08844296,0.0001416,53.2156,191.0872,91.7972,268.3182,5.4949e-05,5.87e-06,0.0,0 STARLINK-4523,1 53389U 22097B   23347.84350170  .00000587  00000-0  54949-4 0  9990,2 53389  53.2156 191.0872 0001416  91.7972 268.3182 15.08844296 75354,6917.867,95.437,540.712,538.753,0.0
53389.0,STARLINK-4523,PAYLOAD,2023-12-14 20:05:25,15.08842933,0.000141,53.2158,186.6231,96.8722,263.243,8.2788e-05,1.03e-05,0.0,0 STARLINK-4523,1 53389U 22097B   23348.83710009  .00001030  00000-0  82788-4 0  9997,2 53389  53.2158 186.6231 0001410  96.8722 263.2430 15.08842933 74858,6917.871,95.437,540.712,538.761,0.0
53389.0,STARLINK-4523,PAYLOAD,2023-12-15 19:56:13,15.08831689,0.0001475,53.2161,182.1624,105.4047,254.7108,-2.7885e-05,-7.32e-06,0.0,0 STARLINK-4523,1 53389U 22097B   23349.83071128 -.00000732  00000-0 -27885-4 0  9997,2 53389  53.2161 182.1624 0001475 105.4047 254.7108 15.08831689 75008,6917.906,95.438,540.791,538.75,0.0
53389.0,STARLINK-4523,PAYLOAD,2023-12-16 18:11:37,15.08835802,0.0001523,53.2163,178.0011,112.8944,247.2209,3.9593e-05,3.42e-06,0.0,0 STARLINK-4523,1 53389U 22097B   23350.75807011  .00000342  00000-0  39593-4 0  9992,2 53389  53.2163 178.0011 0001523 112.8944 247.2209 15.08835802 75792,6917.893,95.438,540.812,538.705,0.0
53389.0,STARLINK-4523,PAYLOAD,2023-12-17 19:37:47,15.088413,0.0001205,53.2153,173.2417,89.7324,270.3806,0.00014707,2.054e-05,0.0,0 STARLINK-4523,1 53389U 22097B   23351.81790780  .00002054  00000-0  14707-3 0  9995,2 53389  53.2153 173.2417 0001205  89.7324 270.3806 15.08841300 75306,6917.876,95.437,540.575,538.908,0.0
53389.0,STARLINK-4523,PAYLOAD,2023-12-18 19:28:34,15.08846231,0.0001256,53.2146,168.7836,91.3575,268.7561,0.00011567,1.554e-05,0.0,0 STARLINK-4523,1 53389U 22097B   23352.81150517  .00001554  00000-0  11567-3 0  9999,2 53389  53.2146 168.7836 0001256  91.3575 268.7561 15.08846231 76101,6917.861,95.437,540.595,538.857,0.0
53389.0,STARLINK-4523,PAYLOAD,2023-12-19 19:19:21,15.08841243,0.0001432,53.2158,164.3254,76.9113,283.2038,2.6173e-05,1.29e-06,0.0,0 STARLINK-4523,1 53389U 22097B   23353.80511124  .00000129  00000-0  26173-4 0  9991,2 53389  53.2158 164.3254 0001432  76.9113 283.2038 15.08841243 75606,6917.877,95.437,540.732,538.751,0.0
53389.0,STARLINK-4523,PAYLOAD,2023-12-20 17:34:46,15.08829468,0.0001527,53.2161,160.1636,75.513,284.6032,-5.6439e-05,-1.186e-05,0.0,0 STARLINK-4523,1 53389U 22097B   23354.73248393 -.00001186  00000-0 -56439-4 0  9993,2 53389  53.2161 160.1636 0001527  75.5130 284.6032 15.08829468 75746,6917.913,95.438,540.834,538.721,0.0
53389.0,STARLINK-4523,PAYLOAD,2023-12-21 14:14:47,15.08841995,0.0001304,53.2168,156.2967,84.4331,275.681,-6.6154e-05,-1.341e-05,0.0,0 STARLINK-4523,1 53389U 22097B   23355.59360127 -.00001341  00000-0 -66154-4 0  9996,2 53389  53.2168 156.2967 0001304  84.4331 275.6810 15.08841995 76521,6917.874,95.437,540.641,538.837,0.0
53389.0,STARLINK-4523,PAYLOAD,2023-12-21 15:50:10,15.0884213,0.0001369,53.2172,155.9983,81.45,278.6647,-4.8614e-05,-1.062e-05,0.0,0 STARLINK-4523,1 53389U 22097B   23355.65984083 -.00001062  00000-0 -48614-4 0  9997,2 53389  53.2172 155.9983 0001369  81.4500 278.6647 15.08842130 75887,6917.874,95.437,540.686,538.792,0.0
53389.0,STARLINK-4523,PAYLOAD,2023-12-22 14:05:33,15.08846848,0.0001305,53.2162,151.8303,82.7026,277.4115,0.00023493,3.454e-05,0.0,0 STARLINK-4523,1 53389U 22097B   23356.58719092  .00003454  00000-0  23493-3 0  9998,2 53389  53.2162 151.8303 0001305  82.7026 277.4115 15.08846848 76679,6917.859,95.437,540.627,538.822,0.0
53389.0,STARLINK-4523,PAYLOAD,2023-12-22 17:16:19,15.08854523,0.0001387,53.2149,151.2377,78.2973,281.8175,0.00039821,6.058e-05,0.0,0 STARLINK-4523,1 53389U 22097B   23356.71967376  .00006058  00000-0  39821-3 0  9998,2 53389  53.2149 151.2377 0001387  78.2973 281.8175 15.08854523 76045,6917.836,95.437,540.661,538.741,0.0
53389.0,STARLINK-4523,PAYLOAD,2023-12-23 13:56:20,15.08849691,0.0001306,53.2149,147.3719,78.0878,282.0261,9.6255e-05,1.245e-05,0.0,0 STARLINK-4523,1 53389U 22097B   23357.58079248  .00001245  00000-0  96255-4 0  9994,2 53389  53.2149 147.3719 0001306  78.0878 282.0261 15.08849691 76829,6917.851,95.437,540.619,538.812,0.0
53389.0,STARLINK-4523,PAYLOAD,2023-12-23 17:07:06,15.08851482,0.0001344,53.2152,146.7764,86.8996,273.215,0.00012101,1.639e-05,0.0,0 STARLINK-4523,1 53389U 22097B   23357.71327066  .00001639  00000-0  12101-3 0  9997,2 53389  53.2152 146.7764 0001344  86.8996 273.2150 15.08851482 76196,6917.845,95.437,540.64,538.781,0.0
53389.0,STARLINK-4523,PAYLOAD,2023-12-23 20:17:52,15.08853666,0.0001356,53.2158,146.1796,95.3444,264.7703,0.00014268,1.984e-05,0.0,0 STARLINK-4523,1 53389U 22097B   23357.84574816  .00001984  00000-0  14268-3 0  9997,2 53389  53.2158 146.1796 0001356  95.3444 264.7703 15.08853666 76866,6917.839,95.437,540.642,538.766,0.0
53389.0,STARLINK-4523,PAYLOAD,2023-12-24 13:47:05,15.08883959,0.000125,53.2161,142.9053,115.8646,244.2475,-0.001026,-0.00016599,0.0,0 STARLINK-4523,1 53389U 22097B   23358.57437122 -.00016599  00000-0 -10260-2 0  9993,2 53389  53.2161 142.9053 0001250 115.8646 244.2475 15.08883959 76974,6917.746,95.435,540.476,538.746,0.0
